ONEWEB-0520             
1 54138U 22138AB  24174.24548914  .00000074  00000+0  15230-3 0  9996
2 54138  87.9152  89.2254 0002553  78.4735 281.6684 13.19726352 82075
ONEWEB-0521             
1 54139U 22138AC  24174.20284131  .00000066  00000+0  13141-3 0  9991
2 54139  87.9150  89.2268 0001876  84.2870 275.8477 13.19726442 82043
ONEWEB-0522             
1 54140U 22138AD  24174.25812788  .00000149  00000+0  33867-3 0  9992
2 54140  87.9149  89.2176 0002128  76.3079 283.8290 13.19726761 82063
ONEWEB-0523             
1 54141U 22138AE  24173.73495274  .00000022  00000+0  23038-4 0  9992
2 54141  87.9213  58.7759 0000979  72.4128 287.7112 13.20773907 83544
ONEWEB-0524             
1 54142U 22138AF  24173.72392263  .00000079  00000+0  16186-3 0  9993
2 54142  87.9212  58.7815 0001854  44.5037 315.6245 13.20772195 83545
ONEWEB-0525             
1 54143U 22138AG  24174.27707810  .00000084  00000+0  17797-3 0  9998
2 54143  87.9152  89.2228 0002375  78.8671 281.2729 13.19726714 82086
ONEWEB-0526             
1 54144U 22138AH  24174.15862024  .00000054  00000+0  10184-3 0  9995
2 54144  87.9151  89.2417 0002137  76.4459 283.6912 13.19726188 82041
ONEWEB-0529             
1 54145U 22138AJ  24174.16176220  .00000092  00000+0  19676-3 0  9990
2 54145  87.9159  89.2564 0002390  77.2690 282.8709 13.19723694 82066
